NORAD_CAT_ID,OBJECT_NAME,OBJECT_TYPE,EPOCH,MEAN_MOTION,ECCENTRICITY,INCLINATION,RA_OF_ASC_NODE,ARG_OF_PERICENTER,MEAN_ANOMALY,BSTAR,MEAN_MOTION_DOT,MEAN_MOTION_DDOT,TLE_LINE0,TLE_LINE1,TLE_LINE2,SEMIMAJOR_AXIS,PERIOD,APOGEE,PERIGEE,DECAYED
51870.0,STARLINK-3591,PAYLOAD,2023-05-02 20:49:41,15.088428,0.000138,53.2188,6.0403,76.078,284.0366,0.00014649,2.044e-05,0.0,0 STARLINK-3591,1 51870U 22022U   23122.86784364  .00002044  00000-0  14649-3 0  9992,2 51870  53.2188   6.0403 0001380  76.0780 284.0366 15.08842800 65885,6917.872,95.437,540.691,538.782,0.0
51870.0,STARLINK-3591,PAYLOAD,2023-05-03 01:35:50,15.08846519,0.0001302,53.218,5.1472,79.6413,280.4725,0.00018879,2.718e-05,0.0,0 STARLINK-3591,1 51870U 22022U   23123.06656107  .00002718  00000-0  18879-3 0  9995,2 51870  53.2180   5.1472 0001302  79.6413 280.4725 15.08846519 65913,6917.86,95.437,540.626,538.825,0.0
51870.0,STARLINK-3591,PAYLOAD,2023-05-03 09:32:46,15.08839337,0.0001304,53.2176,3.6601,71.5888,288.5246,4.2922e-05,3.95e-06,0.0,0 STARLINK-3591,1 51870U 22022U   23123.39776509  .00000395  00000-0  42922-4 0  9996,2 51870  53.2176   3.6601 0001304  71.5888 288.5246 15.08839337 65966,6917.882,95.438,540.65,538.845,0.0
51870.0,STARLINK-3591,PAYLOAD,2023-05-03 20:40:30,15.08823951,0.0001519,53.2184,1.5787,84.4215,275.695,-0.0001291,-2.341e-05,0.0,0 STARLINK-3591,1 51870U 22022U   23123.86146505 -.00002341  00000-0 -12910-3 0  9993,2 51870  53.2184   1.5787 0001519  84.4215 275.6950 15.08823951 66035,6917.929,95.439,540.845,538.744,0.0
51870.0,STARLINK-3591,PAYLOAD,2023-05-03 22:15:53,15.08822875,0.0001375,53.2193,1.2826,78.3341,281.7805,-0.00013922,-2.502e-05,0.0,0 STARLINK-3591,1 51870U 22022U   23123.92770636 -.00002502  00000-0 -13922-3 0  9991,2 51870  53.2193   1.2826 0001375  78.3341 281.7805 15.08822875 66040,6917.933,95.439,540.749,538.847,0.0
51870.0,STARLINK-3591,PAYLOAD,2023-05-04 09:23:35,15.0883279,0.0001166,53.22,359.1986,97.6737,262.4388,-2.9863e-05,-7.63e-06,0.0,0 STARLINK-3591,1 51870U 22022U   23124.39137911 -.00000763  00000-0 -29863-4 0  9995,2 51870  53.2200 359.1986 0001166  97.6737 262.4388 15.08832790 66119,6917.902,95.438,540.574,538.961,0.0
51870.0,STARLINK-3591,PAYLOAD,2023-05-04 22:06:39,15.08851394,0.000132,53.2185,356.8214,78.4387,281.6753,0.00024729,3.651e-05,0.0,0 STARLINK-3591,1 51870U 22022U   23124.92128951  .00003651  00000-0  24729-3 0  9990,2 51870  53.2185 356.8214 0001320  78.4387 281.6753 15.08851394 66197,6917.846,95.437,540.624,538.797,0.0
51870.0,STARLINK-3591,PAYLOAD,2023-05-05 21:57:26,15.08845977,0.0001312,53.2177,352.3624,81.0309,279.0832,0.00038037,5.772e-05,0.0,0 STARLINK-3591,1 51870U 22022U   23125.91489189  .00005772  00000-0  38037-3 0  9996,2 51870  53.2177 352.3624 0001312  81.0309 279.0832 15.08845977 66345,6917.862,95.437,540.635,538.819,0.0
51870.0,STARLINK-3591,PAYLOAD,2023-05-06 01:08:12,15.08850939,0.0001209,53.2174,351.7664,80.729,279.3839,0.00037234,5.645e-05,0.0,0 STARLINK-3591,1 51870U 22022U   23126.04736830  .00005645  00000-0  37234-3 0  9996,2 51870  53.2174 351.7664 0001209  80.7290 279.3839 15.08850939 66365,6917.847,95.437,540.548,538.876,0.0
51870.0,STARLINK-3591,PAYLOAD,2023-05-07 00:58:58,15.08854763,0.0001164,53.2159,347.3039,76.6613,283.4509,1.0325e-05,-1.23e-06,0.0,0 STARLINK-3591,1 51870U 22022U   23127.04095976 -.00000123  00000-0  10325-4 0  9996,2 51870  53.2159 347.3039 0001164  76.6613 283.4509 15.08854763 66514,6917.835,95.437,540.506,538.895,0.0
51870.0,STARLINK-3591,PAYLOAD,2023-05-07 21:39:00,15.08838177,0.0001148,53.2178,343.4406,86.2152,273.8972,-4.1616e-05,-9.5e-06,0.0,0 STARLINK-3591,1 51870U 22022U   23127.90209340 -.00000950  00000-0 -41616-4 0  9999,2 51870  53.2178 343.4406 0001148  86.2152 273.8972 15.08838177 66649,6917.886,95.438,540.545,538.957,0.0
51870.0,STARLINK-3591,PAYLOAD,2023-05-08 18:19:01,15.08847578,0.0001055,53.218,339.5747,84.7922,275.3191,4.8891e-05,4.91e-06,0.0,0 STARLINK-3591,1 51870U 22022U   23128.76320639  .00000491  00000-0  48891-4 0  9999,2 51870  53.2180 339.5747 0001055  84.7922 275.3191 15.08847578 66770,6917.857,95.437,540.452,538.992,0.0
51870.0,STARLINK-3591,PAYLOAD,2023-05-08 21:29:47,15.08851451,0.0001077,53.2178,338.9802,84.4213,275.6902,8.9698e-05,1.14e-05,0.0,0 STARLINK-3591,1 51870U 22022U   23128.89568294  .00001140  00000-0  89698-4 0  9996,2 51870  53.2178 338.9802 0001077  84.4213 275.6902 15.08851451 66796,6917.845,95.437,540.455,538.965,0.0
51870.0,STARLINK-3591,PAYLOAD,2023-05-09 02:15:56,15.08854869,0.0001111,53.2169,338.0881,81.7879,278.3239,0.00022208,3.25e-05,0.0,0 STARLINK-3591,1 51870U 22022U   23129.09440017  .00003250  00000-0  22208-3 0  9998,2 51870  53.2169 338.0881 0001111  81.7879 278.3239 15.08854869 66824,6917.835,95.437,540.469,538.931,0.0
51870.0,STARLINK-3591,PAYLOAD,2023-05-10 00:31:22,15.08826485,0.0001137,53.217,333.9249,103.6491,256.4628,6.245e-05,7.06e-06,0.0,0 STARLINK-3591,1 51870U 22022U   23130.02178582  .00000706  00000-0  62450-4 0  9995,2 51870  53.2170 333.9249 0001137 103.6491 256.4628 15.08826485 66967,6917.922,95.438,540.573,539.0,0.0
51870.0,STARLINK-3591,PAYLOAD,2023-05-10 19:35:59,15.0886245,9.88e-05,53.2167,330.3572,94.143,265.9675,0.0016357,0.00025856,0.0,0 STARLINK-3591,1 51870U 22022U   23130.81666663  .00025856  00000-0  16357-2 0  9990,2 51870  53.2167 330.3572 0000988  94.1430 265.9675 15.08862450 67086,6917.812,95.436,540.36,538.993,0.0
51870.0,STARLINK-3591,PAYLOAD,2023-05-11 19:26:45,15.08872898,8.86e-05,53.2164,325.8964,83.7061,276.4032,0.00075623,0.00011779,0.0,0 STARLINK-3591,1 51870U 22022U   23131.81025203  .00011779  00000-0  75623-3 0  9991,2 51870  53.2164 325.8964 0000886  83.7061 276.4032 15.08872898 67236,6917.78,95.435,540.258,539.032,0.0
51870.0,STARLINK-3591,PAYLOAD,2023-05-12 19:17:32,15.08848385,8.22e-05,53.2169,321.4355,92.6047,267.504,5.3959e-05,5.71e-06,0.0,0 STARLINK-3591,1 51870U 22022U   23132.80385022  .00000571  00000-0  53959-4 0  9996,2 51870  53.2169 321.4355 0000822  92.6047 267.5040 15.08848385 67380,6917.855,95.437,540.288,539.151,0.0
51870.0,STARLINK-3591,PAYLOAD,2023-05-13 19:08:19,15.0884921,7.97e-05,53.2162,316.9766,88.2548,271.8535,8.2612e-05,1.028e-05,0.0,0 STARLINK-3591,1 51870U 22022U   23133.79744816  .00001028  00000-0  82612-4 0  9991,2 51870  53.2162 316.9766 0000797  88.2548 271.8535 15.08849210 67538,6917.852,95.437,540.269,539.166,0.0
51870.0,STARLINK-3591,PAYLOAD,2023-05-14 04:40:38,15.08840644,8.85e-05,53.2157,315.193,86.339,273.7704,2.7422e-05,1.49e-06,0.0,0 STARLINK-3591,1 51870U 22022U   23134.19488960  .00000149  00000-0  27422-4 0  9992,2 51870  53.2157 315.1930 0000885  86.3390 273.7704 15.08840644 67595,6917.878,95.438,540.356,539.131,0.0
51870.0,STARLINK-3591,PAYLOAD,2023-05-14 12:37:34,15.08834896,9.42e-05,53.2156,313.7067,96.2444,263.8655,3.0659e-06,-2.39e-06,0.0,0 STARLINK-3591,1 51870U 22022U   23134.52609489 -.00000239  00000-0  30659-5 0  9998,2 51870  53.2156 313.7067 0000942  96.2444 263.8655 15.08834896 67646,6917.896,95.438,540.413,539.109,0.0
51870.0,STARLINK-3591,PAYLOAD,2023-05-14 18:59:07,15.08838964,9.04e-05,53.2162,312.5164,107.733,252.3761,9.4227e-05,1.212e-05,0.0,0 STARLINK-3591,1 51870U 22022U   23134.79105369  .00001212  00000-0  94227-4 0  9996,2 51870  53.2162 312.5164 0000904 107.7330 252.3761 15.08838964 67683,6917.884,95.438,540.374,539.123,0.0
51870.0,STARLINK-3591,PAYLOAD,2023-05-15 04:31:26,15.08837262,0.0001035,53.2181,310.7342,104.5618,255.5489,5.8355e-05,6.41e-06,0.0,0 STARLINK-3591,1 51870U 22022U   23135.18849600  .00000641  00000-0  58355-4 0  9990,2 51870  53.2181 310.7342 0001035 104.5618 255.5489 15.08837262 67741,6917.889,95.438,540.47,539.038,0.0
51870.0,STARLINK-3591,PAYLOAD,2023-05-15 17:14:31,15.08838086,0.0001063,53.2182,308.3555,106.3596,253.7513,-2.0214e-05,-6.09e-06,0.0,0 STARLINK-3591,1 51870U 22022U   23135.71841688 -.00000609  00000-0 -20214-4 0  9996,2 51870  53.2182 308.3555 0001063 106.3596 253.7513 15.08838086 67829,6917.886,95.438,540.487,539.016,0.0
51870.0,STARLINK-3591,PAYLOAD,2023-05-16 04:22:13,15.08839616,9.41e-05,53.2181,306.2724,95.1318,264.9782,2.1529e-05,5.5e-07,0.0,0 STARLINK-3591,1 51870U 22022U   23136.18209682  .00000055  00000-0  21529-4 0  9993,2 51870  53.2181 306.2724 0000941  95.1318 264.9782 15.08839616 67893,6917.882,95.438,540.398,539.096,0.0
51870.0,STARLINK-3591,PAYLOAD,2023-05-16 20:16:04,15.08838948,8.85e-05,53.2168,303.2966,86.9931,273.1162,0.00021427,3.124e-05,0.0,0 STARLINK-3591,1 51870U 22022U   23136.84449883  .00003124  00000-0  21427-3 0  9991,2 51870  53.2168 303.2966 0000885  86.9931 273.1162 15.08838948 67991,6917.884,95.438,540.361,539.136,0.0
51870.0,STARLINK-3591,PAYLOAD,2023-05-17 18:31:29,15.08836517,7.08e-05,53.217,299.1348,85.8518,274.2555,5.3871e-05,5.7e-06,0.0,0 STARLINK-3591,1 51870U 22022U   23137.77186404  .00000570  00000-0  53871-4 0  9992,2 51870  53.2170 299.1348 0000708  85.8518 274.2555 15.08836517 68139,6917.891,95.438,540.246,539.266,0.0
51870.0,STARLINK-3591,PAYLOAD,2023-05-18 13:36:05,15.08860102,8.7e-05,53.2177,295.5635,79.6492,280.4598,-0.00018638,-3.254e-05,0.0,0 STARLINK-3591,1 51870U 22022U   23138.56673253 -.00003254  00000-0 -18638-3 0  9998,2 51870  53.2177 295.5635 0000870  79.6492 280.4598 15.08860102 68253,6917.819,95.436,540.286,539.082,0.0
51870.0,STARLINK-3591,PAYLOAD,2023-05-18 19:57:38,15.08850245,8.51e-05,53.2175,294.375,90.5572,269.5518,0.00010213,1.339e-05,0.0,0 STARLINK-3591,1 51870U 22022U   23138.83169299  .00001339  00000-0  10213-3 0  9999,2 51870  53.2175 294.3750 0000851  90.5572 269.5518 15.08850245 68297,6917.849,95.437,540.303,539.125,0.0
51870.0,STARLINK-3591,PAYLOAD,2023-05-19 16:37:39,15.08838439,9.53e-05,53.2178,290.5119,82.3895,277.7206,7.7721e-05,9.49e-06,0.0,0 STARLINK-3591,1 51870U 22022U   23139.69282130  .00000949  00000-0  77721-4 0  9998,2 51870  53.2178 290.5119 0000953  82.3895 277.7206 15.08838439 68428,6917.885,95.438,540.409,539.091,0.0
